{
  "norad_id": 46790,
  "name": "STARLINK-1931",
  "history": [
    {
      "epoch": "2026-03-28T13:44:23.432352Z",
      "apogee_km": 365.6060099970937,
      "perigee_km": 358.8036570187187,
      "latitude_deg": 2.6074112769743387e-06,
      "longitude_deg": 158.17605607873202,
      "height_km": 359.99884353108433,
      "semi_major_axis_km": 6740.341833507906,
      "eccentricity": 0.0005046,
      "inclination_deg": 53.0432,
      "raan_deg": 190.2647,
      "arg_perigee_deg": 24.0774,
      "mean_anomaly_deg": 336.0477,
      "mean_motion_rev_day": 15.68844425
    }
  ]
}